     2.100          NAVIGATION                              RINEX VERSION / TYPE
fic2rin                                 04/10/2013 00:24:52 PGM / RUN BY / DATE
                                                            END OF HEADER
19 13  4  9 20  0  0.0 -.363479834050D-03 -.318323145621D-11  .000000000000D+00
     .270000000000D+02 -.107500000000D+02  .488413201513D-08 -.168877498206D+01
    -.568106770515D-06  .910239515360D-02  .386871397495D-05  .515367514801D+04
     .244800000000D+06 -.521540641785D-07 -.154418812177D+01 -.128522515297D-06
     .961874395164D+00  .306312500000D+03  .285144291210D+00 -.828070206734D-08
    -.285726187357D-10  .100000000000D+01  .173500000000D+04  .000000000000D+00
     .240000000000D+01  .000000000000D+00 -.149011611938D-07  .270000000000D+02
     .237606000000D+06  .400000000000D+01
21 13  4  9 20  0  0.0 -.290982425213D-03 -.216004991671D-11  .000000000000D+00
     .108000000000D+03 -.537500000000D+02  .502913805522D-08  .156484031185D+01
    -.288523733616D-05  .202134357532D-01  .108554959297D-04  .515371225166D+04
     .244800000000D+06 -.443309545517D-06 -.587530078472D+00 -.147148966789D-06
     .931741011073D+00  .162062500000D+03 -.215317806885D+01 -.840570727430D-08
    -.556451749877D-09  .100000000000D+01  .173500000000D+04  .000000000000D+00
     .240000000000D+01  .000000000000D+00 -.111758708954D-07  .108000000000D+03
     .237606000000D+06  .400000000000D+01
22 13  4  9 20  0  0.0  .163880642503D-03  .147792889038D-11  .000000000000D+00
     .370000000000D+02  .106406250000D+03  .520521681817D-08 -.100719874838D+00
     .555813312531D-05  .641723815352D-02  .941753387451D-05  .515365784645D+04
     .244800000000D+06 -.409781932831D-07  .462765823985D+00  .162050127983D-06
     .925761172503D+00  .181718750000D+03 -.204505521557D+01 -.850392565121D-08
     .418231706744D-09  .100000000000D+01  .173500000000D+04  .000000000000D+00
     .340000000000D+01  .000000000000D+00 -.172294676304D-07  .370000000000D+02
     .237606000000D+06  .400000000000D+01
23 13  4  9 20  0  0.0  .967783853412D-04 -.363797880709D-11  .000000000000D+00
     .690000000000D+02  .237500000000D+01  .521343144606D-08 -.215891644402D+01
    -.931322574615D-07  .834893540014D-02  .177323818207D-05  .515372301674D+04
     .244800000000D+06 -.372529029846D-08  .151869375770D+01 -.154599547386D-06
     .956000066634D+00  .347000000000D+03 -.290904060819D+01 -.863714548606D-08
     .163221084528D-09  .100000000000D+01  .173500000000D+04  .000000000000D+00
     .240000000000D+01  .000000000000D+00 -.200234353542D-07  .690000000000D+02
     .237606000000D+06  .400000000000D+01
24 13  4  9 20  0  0.0 -.422308221459D-05 -.682121026330D-12  .000000000000D+00
     .750000000000D+02 -.953437500000D+02  .450125892407D-08 -.302789010933D+01
    -.500120222569D-05  .875929254107D-03  .918284058571D-05  .515369585800D+04
     .244800000000D+06 -.633299350739D-07  .254560433681D+01  .000000000000D+00
     .959172348898D+00  .202281250000D+03  .327361030461D+00 -.805462122159D-08
    -.365372362083D-09  .100000000000D+01  .173500000000D+04  .000000000000D+00
     .240000000000D+01  .000000000000D+00  .325962901115D-08  .750000000000D+02
     .237606000000D+06  .400000000000D+01
25 13  4  9 20  0  0.0  .857966952026D-04  .363797880709D-11  .000000000000D+00
     .530000000000D+02  .458437500000D+02  .419160316853D-08  .137088846886D+01
     .244006514549D-05  .245035369880D-02  .109970569611D-04  .515356311035D+04
     .244800000000D+06 -.447034835815D-07 -.268974991664D+01  .707805156708D-07
     .972610949904D+00  .173468750000D+03  .581065838467D+00 -.785461289044D-08
     .372872674501D-09  .100000000000D+01  .173500000000D+04  .000000000000D+00
     .240000000000D+01  .000000000000D+00  .558793544769D-08  .530000000000D+02
     .237606000000D+06  .400000000000D+01
26 13  4  9 20  0  0.0 -.334652140737D-04  .150066625793D-10  .000000000000D+00
     .280000000000D+02 -.133437500000D+02  .452661712320D-08 -.222999467127D+01
    -.696629285812D-06  .212881810730D-01  .115856528282D-05  .515366050529D+04
     .244800000000D+06  .292435288429D-06  .159831109923D+01  .353902578354D-07
     .979185265717D+00  .360000000000D+03  .123131643761D+01 -.805962142987D-08
     .196793911542D-09  .100000000000D+01  .173500000000D+04  .000000000000D+00
     .240000000000D+01  .000000000000D+00 -.605359673500D-08  .280000000000D+02
     .237606000000D+06  .400000000000D+01
27 13  4  9 20  0  0.0 -.179866794497D-03  .125055521494D-11  .000000000000D+00
     .112000000000D+03  .451562500000D+02  .540236788745D-08 -.388620471945D-01
     .241957604885D-05  .607751810458D-02  .106524676085D-04  .515365958023D+04
     .244800000000D+06  .558793544769D-08 -.267335348399D+01  .987201929092D-07
     .977441738006D+00  .179281250000D+03  .834252820287D+00 -.790997233924D-08
     .396802242692D-09  .100000000000D+01  .173500000000D+04  .000000000000D+00
     .240000000000D+01  .630000000000D+02 -.190921127796D-07  .112000000000D+03
     .237606000000D+06  .400000000000D+01
29 13  4  9 20  0  0.0  .424852129072D-03  .352429196937D-11  .000000000000D+00
     .630000000000D+02 -.321875000000D+01  .487056002123D-08  .186082420428D+01
    -.225380063057D-06  .197666196618D-02  .351294875145D-05  .515366093636D+04
     .244800000000D+06  .428408384323D-07 -.158754239540D+01  .558793544769D-08
     .965246068773D+00  .312750000000D+03 -.106911768212D+01 -.833606151614D-08
    -.113219001740D-09  .100000000000D+01  .173500000000D+04  .000000000000D+00
     .240000000000D+01  .000000000000D+00 -.977888703346D-08  .630000000000D+02
     .237606000000D+06  .400000000000D+01
30 13  4  9 20  0  0.0  .967597588897D-05  .234194885707D-10  .000000000000D+00
     .165000000000D+03  .382812500000D+02  .435196699118D-08 -.998132240443D+00
     .202096998692D-05  .109204840846D-01  .116620212793D-04  .515364676285D+04
     .244800000000D+06 -.188127160072D-06 -.278347745707D+01  .111758708954D-06
     .963684693381D+00  .155687500000D+03  .161230622499D+01 -.807997942072D-08
     .374301305437D-09  .100000000000D+01  .173500000000D+04  .000000000000D+00
     .240000000000D+02  .630000000000D+02 -.419095158577D-08  .165000000000D+03
     .237606000000D+06  .400000000000D+01
31 13  4  9 20  0  0.0  .309993047267D-03  .147792889038D-11  .000000000000D+00
     .830000000000D+02 -.999687500000D+02  .406195491101D-08  .245818797712D+01
    -.489503145218D-05  .797134218737D-02  .102818012238D-04  .515357466507D+04
     .244800000000D+06  .171363353729D-06  .257763959486D+01  .141561031342D-06
     .980657496732D+00  .190156250000D+03 -.746753842301D+00 -.776496629916D-08
    -.463947896721D-09  .100000000000D+01  .173500000000D+04  .000000000000D+00
     .240000000000D+01  .000000000000D+00 -.130385160446D-07  .830000000000D+02
     .237606000000D+06  .400000000000D+01
14 13  4  9 19 59 44.0  .221090391278D-03  .000000000000D+00  .000000000000D+00
     .250000000000D+02 -.148125000000D+02  .478734226916D-08 -.117334824728D+01
    -.562518835068D-06  .675196573138D-02  .206008553505D-05  .515372374153D+04
     .244784000000D+06  .260770320892D-07  .157658744601D+01  .124797224998D-06
     .974418961581D+00  .346656250000D+03 -.202999996428D+01 -.843785147038D-08
     .107147320259D-11  .100000000000D+01  .173500000000D+04  .000000000000D+00
     .240000000000D+01  .000000000000D+00 -.884756445885D-08  .250000000000D+02
     .237786000000D+06  .400000000000D+01
12 13  4  9 19 59 44.0  .127494800836D-03  .204636307899D-11  .000000000000D+00
     .500000000000D+01  .414375000000D+02  .387408994282D-08  .223176092834D+01
     .210478901863D-05  .447747297585D-02  .110380351543D-04  .515359771729D+04
     .244784000000D+06 -.145286321640D-06 -.265204865983D+01  .558793544769D-07
     .983759700832D+00  .178875000000D+03  .203437727118D+00 -.766639076452D-08
     .393944980818D-09  .100000000000D+01  .173500000000D+04  .000000000000D+00
     .240000000000D+01  .000000000000D+00 -.121071934700D-07  .500000000000D+01
     .241206000000D+06  .400000000000D+01
10 13  4  9 19 59 44.0 -.761337578297D-04 -.113686837722D-11  .000000000000D+00
     .200000000000D+02  .890625000000D+02  .483627287875D-08  .293068119692D-01
     .479072332382D-05  .123352098744D-01  .979565083981D-05  .515362840843D+04
     .244784000000D+06  .186264514923D-07  .476170501384D+00  .163912773132D-06
     .944227218762D+00  .184718750000D+03  .799806443560D+00 -.840427864337D-08
     .386444668400D-09  .100000000000D+01  .173500000000D+04  .000000000000D+00
     .240000000000D+01  .000000000000D+00 -.232830643654D-08  .200000000000D+02
     .244596000000D+06  .400000000000D+01
10 13  4  9 21 59 44.0 -.761421397328D-04 -.113686837722D-11  .000000000000D+00
     .700000000000D+02  .977187500000D+02  .468055210664D-08  .107939761331D+01
     .513717532158D-05  .123376210686D-01  .105444341898D-04  .515363380623D+04
     .251984000000D+06 -.987201929092D-07  .476110820178D+00  .633299350739D-07
     .944229615022D+00  .166843750000D+03  .799923822255D+00 -.836177687300D-08
     .266796827444D-09  .100000000000D+01  .173500000000D+04  .000000000000D+00
     .240000000000D+01  .000000000000D+00 -.232830643654D-08  .700000000000D+02
     .244806000000D+06  .400000000000D+01
12 13  4  9 21 59 44.0  .127509701997D-03  .204636307899D-11  .000000000000D+00
     .220000000000D+02  .377187500000D+02  .386801826134D-08 -.300123679815D+01
     .185705721378D-05  .447799894027D-02  .111646950245D-04  .515359691238D+04
     .251984000000D+06 -.949949026108D-07 -.265210364653D+01 -.577419996262D-07
     .983763061155D+00  .174218750000D+03  .203472718655D+00 -.757745848870D-08
     .424303388225D-09  .100000000000D+01  .173500000000D+04  .000000000000D+00
     .240000000000D+01  .000000000000D+00 -.121071934700D-07  .220000000000D+02
     .244806000000D+06  .400000000000D+01
